{
"type": "FeatureCollection",
"name": "first_10_polygon_cleaned_with_stats",
"crs": { "type": "name", "properties": { "name": "urn:ogc:def:crs:OGC:1.3:CRS84" } },
"features": [
{ "type": "Feature", "properties": { "CODIGO": "231", "OBSERV": "clean pasture", "INSUMO": "Villanueva-orthophoto", "APOYO": null, "ASIGNACION": "Sofia", "Asignado": null, "OAM": "https://map.openaerialmap.org/#/-72.96981811523436,10.62148846942077,15/square/03223100022113220/6892721568ad542f682331a4?_k=odm80e", "area": 34429.374, "url_type": "oam", "download_url": "https://oin-hotosm-temp.s3.us-east-1.amazonaws.com/68926fc868ad542f68232c06/0/68926fc868ad542f68232c07.tif", "poly_id": 0, "image_uid": "img_0000_c4a77f3e", "r_mean": 118.13552948919936, "r_median": 119.0, "r_std": 31.204851005778757, "r_var": 973.74272629285144, "r_cv": 0.26414450538888629, "g_mean": 127.32698692011206, "g_median": 128.0, "g_std": 24.155409645435675, "g_var": 583.48381513880679, "g_cv": 0.18971162539636116, "b_mean": 88.046772646204644, "b_median": 89.0, "b_std": 28.192018884866641, "b_var": 794.78992880467729, "b_cv": 0.3201936656798276, "r_g_mean": 0.92297769069429558, "r_g_std": 0.16047556842080343, "r_b_mean": 1.4110503137191206, "r_b_std": 0.64229738256587943, "g_b_mean": 1.6244573639650062, "g_b_std": 1.3512141105955282, "r_minus_g_mean": -9.1914574309126991, "r_minus_g_std": 19.790865485194438, "g_minus_b_mean": 39.280214273907418, "g_minus_b_std": 20.006753577290276, "h_mean": 1.2093970541134285, "h_std": 0.44266664983945125, "s_mean": 0.34143649204435683, "s_std": 0.13527260823283882, "v_mean": 0.51625497380549912, "v_std": 0.10496214684494119, "lab_l_mean": 51.631578477471585, "lab_a_mean": -10.309640691952675, "lab_b_mean": 20.312675276088228, "vari_mean": 0.064088803647497278, "vari_std": 0.12862089275578495 }, "geometry": { "type": "MultiPolygon", "coordinates": [ [ [ [ -72.970555854111566, 10.61902892557619 ], [ -72.970539740348201, 10.619053461298112 ], [ -72.970544819181086, 10.619075162912408 ], [ -72.970557615882683, 10.619101994244248 ], [ -72.970557579155113, 10.619112198273415 ], [ -72.970574267388912, 10.61913266537471 ], [ -72.970566365882533, 10.619178555803225 ], [ -72.970559832553647, 10.619202767326881 ], [ -72.970545470253597, 10.619252461216165 ], [ -72.970533756167541, 10.619283032426981 ], [ -72.970532434808476, 10.619291956523831 ], [ -72.970527172331501, 10.619321274150126 ], [ -72.970516742870572, 10.619353125291854 ], [ -72.970516664820067, 10.619374808740185 ], [ -72.970539748668031, 10.619409328752782 ], [ -72.970540987387864, 10.619423363495066 ], [ -72.970540881790726, 10.619452700191101 ], [ -72.970560107163081, 10.619484655797047 ], [ -72.970560006161108, 10.619512716198656 ], [ -72.970550964700791, 10.619567896537035 ], [ -72.970547910039272, 10.619744862703891 ], [ -72.970556621704702, 10.619787144518886 ], [ -72.970617090499928, 10.619778588767824 ], [ -72.970688850199906, 10.619767681048252 ], [ -72.970721030955247, 10.619782143853948 ], [ -72.970758882469298, 10.61978865420688 ], [ -72.970782305629967, 10.619773590005085 ], [ -72.970841156925758, 10.61976662299773 ], [ -72.970895136574626, 10.619770001165115 ], [ -72.970932172691391, 10.619778901256678 ], [ -72.970969275702515, 10.619769465006138 ], [ -72.971005543231144, 10.619767999136275 ], [ -72.971049817920942, 10.619780910011217 ], [ -72.971072410292237, 10.619773017138273 ], [ -72.971112707218325, 10.619771564539956 ], [ -72.971148138236913, 10.619778864470458 ], [ -72.971248069398385, 10.619776824569822 ], [ -72.97133994268863, 10.619774756271738 ], [ -72.971401180079653, 10.619776566320731 ], [ -72.971453593860062, 10.619767184809577 ], [ -72.971457562128847, 10.619783939964897 ], [ -72.971450989858084, 10.619818992787293 ], [ -72.971455698059714, 10.619854086219489 ], [ -72.9714814422654, 10.619866134568166 ], [ -72.971474894883642, 10.619894013200451 ], [ -72.971464350556417, 10.619913109000665 ], [ -72.971446613528101, 10.619915438295219 ], [ -72.971415252020464, 10.619896992230927 ], [ -72.971384639047699, 10.619894492743409 ], [ -72.971346725331387, 10.619905519769766 ], [ -72.971314391629477, 10.619933308525551 ], [ -72.971296525557918, 10.619971510553425 ], [ -72.971279453889338, 10.620012904346057 ], [ -72.97129228969078, 10.620028893478318 ], [ -72.97130109127464, 10.620046462892732 ], [ -72.971312272305852, 10.620074403930925 ], [ -72.971333145918493, 10.620096002055098 ], [ -72.971335394372389, 10.620143043656602 ], [ -72.971345764707934, 10.620172576324938 ], [ -72.971333610556314, 10.620190869209189 ], [ -72.971300529212058, 10.620202710480223 ], [ -72.971289163728954, 10.620225789593178 ], [ -72.971276221813255, 10.620239296246959 ], [ -72.9712785706256, 10.620258437429401 ], [ -72.97128168803809, 10.620287944564813 ], [ -72.971272788945583, 10.620297479239337 ], [ -72.971245370775549, 10.62030296340591 ], [ -72.971238070015019, 10.620316489918366 ], [ -72.971208185450749, 10.620335516710252 ], [ -72.971183929654245, 10.620357753190712 ], [ -72.971167732659765, 10.620380017139961 ], [ -72.971157159615018, 10.620407084344237 ], [ -72.97114259731994, 10.620422977012689 ], [ -72.971122333627619, 10.620455590790034 ], [ -72.971102928354, 10.620473858130291 ], [ -72.971073941433488, 10.620467378121306 ], [ -72.971061822586563, 10.620476105112436 ], [ -72.971054454925508, 10.620507967053037 ], [ -72.971048696158448, 10.620540630997208 ], [ -72.971060738470271, 10.620553429279838 ], [ -72.97104617329758, 10.620570118270782 ], [ -72.971018693947443, 10.620592343383676 ], [ -72.970989638170977, 10.620604996034682 ], [ -72.97097905362611, 10.620635252158985 ], [ -72.970985403139778, 10.620662378949742 ], [ -72.970992563355978, 10.620687915014749 ], [ -72.970993317601753, 10.620702267128198 ], [ -72.971006167756073, 10.620714270111931 ], [ -72.971003707084421, 10.620726219176861 ], [ -72.97097872372936, 10.620726928436596 ], [ -72.970964296240226, 10.620705352989503 ], [ -72.970940176143728, 10.620690121344889 ], [ -72.970911143304036, 10.620696397033877 ], [ -72.970898128714509, 10.620729833564893 ], [ -72.97090370390039, 10.62074818796458 ], [ -72.970930221559655, 10.62076900875198 ], [ -72.970951887638478, 10.620794595000966 ], [ -72.970956661768057, 10.620811352998276 ], [ -72.970954984936853, 10.620829682761199 ], [ -72.970961365091881, 10.620848040899116 ], [ -72.970943550552107, 10.620871893619931 ], [ -72.970933054923876, 10.620877437351634 ], [ -72.97090477917952, 10.620897267015177 ], [ -72.970896651508994, 10.620916371299799 ], [ -72.97089980617983, 10.620935515320733 ], [ -72.970900534601896, 10.620957041619263 ], [ -72.97089086506567, 10.620971696886949 ], [ -72.970372830508708, 10.620975138959965 ], [ -72.970248090432619, 10.620973743060363 ], [ -72.97020909291804, 10.620972330220601 ], [ -72.970009962464218, 10.620951858223 ], [ -72.969862392165268, 10.620935075012833 ], [ -72.969842092128289, 10.620933089886769 ], [ -72.969823421082467, 10.620926327954328 ], [ -72.969774532475071, 10.620896818538998 ], [ -72.969505962562906, 10.620735476793834 ], [ -72.969266022814452, 10.620590178856659 ], [ -72.96916721232077, 10.620530683479634 ], [ -72.969216953341956, 10.620502885866578 ], [ -72.96922959729055, 10.620482841235134 ], [ -72.969278889906036, 10.620489711203657 ], [ -72.969303095506433, 10.620481186906563 ], [ -72.969340808314129, 10.620481319915243 ], [ -72.969363118450246, 10.620462266600869 ], [ -72.969372922540799, 10.62042499260688 ], [ -72.969368207918549, 10.620391493628093 ], [ -72.969403959756946, 10.620399273053842 ], [ -72.969403890815201, 10.620418404808527 ], [ -72.969386257387626, 10.620481480202818 ], [ -72.969397751015819, 10.620512133198703 ], [ -72.969423811624623, 10.620525618225908 ], [ -72.969418845349395, 10.620561952953913 ], [ -72.969408050437622, 10.62060591956365 ], [ -72.969433050375969, 10.620645229860665 ], [ -72.969458168438138, 10.620652014549433 ], [ -72.969482305106482, 10.620662622898202 ], [ -72.969499790310579, 10.620640681765945 ], [ -72.969498920133702, 10.62061389335763 ], [ -72.969487419597186, 10.620585153901315 ], [ -72.969509678032907, 10.620580448940919 ], [ -72.969572502021393, 10.620589280142523 ], [ -72.96960542436878, 10.62057696033931 ], [ -72.969588187339568, 10.620530024084907 ], [ -72.969602743968508, 10.620515725960885 ], [ -72.969653998468203, 10.620514950351302 ], [ -72.969674360513622, 10.620499715459749 ], [ -72.969685111495323, 10.620468184571642 ], [ -72.969714166150041, 10.620455851118832 ], [ -72.96974805172394, 10.620444491023425 ], [ -72.96976930554878, 10.62045030573417 ], [ -72.969768234562082, 10.620479000862298 ], [ -72.969786521930487, 10.620502980785199 ], [ -72.969823212005636, 10.620518416815559 ], [ -72.96983294804248, 10.620500274562492 ], [ -72.969860023606358, 10.620500370009804 ], [ -72.969882364727169, 10.620472707093326 ], [ -72.969898838409563, 10.62046319825993 ], [ -72.969923133578774, 10.620429802446901 ], [ -72.969941637112299, 10.620393515422155 ], [ -72.969986202180678, 10.620370713380884 ], [ -72.970001756482873, 10.620347809080339 ], [ -72.970012397178522, 10.620346889352378 ], [ -72.970039438276373, 10.620356551566204 ], [ -72.970069426063276, 10.620353787367858 ], [ -72.970072447627373, 10.620320315657946 ], [ -72.970043630713747, 10.620266642499326 ], [ -72.970047581071142, 10.620243697297012 ], [ -72.970026410851474, 10.620214923775277 ], [ -72.970014893047548, 10.620190967725751 ], [ -72.969998533080812, 10.620168907266983 ], [ -72.969967616522496, 10.620161144953057 ], [ -72.969968690017055, 10.620131493501695 ], [ -72.969953307996008, 10.620106566597467 ], [ -72.969936927365296, 10.620090245844612 ], [ -72.969913778079757, 10.62007390213641 ], [ -72.969884782044943, 10.620069972804453 ], [ -72.969849928914172, 10.620081329508674 ], [ -72.96981609070977, 10.620079297566873 ], [ -72.969773664193312, 10.620045665646092 ], [ -72.969773740002523, 10.620024620351224 ], [ -72.969767142734568, 10.619976765284743 ], [ -72.969747924081474, 10.619943215175905 ], [ -72.969737400566217, 10.619911609281619 ], [ -72.96973368107399, 10.619870461373752 ], [ -72.969724103574521, 10.619844598595225 ], [ -72.969693387847173, 10.619781351815057 ], [ -72.969693501567889, 10.619749783421142 ], [ -72.969661641581553, 10.619735321646049 ], [ -72.969638320027386, 10.619766808217811 ], [ -72.969600586625248, 10.619772414961476 ], [ -72.969582183046285, 10.619780959745123 ], [ -72.969557003012312, 10.619791394195953 ], [ -72.969522180925466, 10.61979414130451 ], [ -72.969489358615576, 10.619778719790359 ], [ -72.969437058273328, 10.619801494489904 ], [ -72.96943209891505, 10.619835915683986 ], [ -72.969426141844124, 10.619878943030058 ], [ -72.969409654395903, 10.619892278010969 ], [ -72.969403662850638, 10.619944871233651 ], [ -72.969423911112514, 10.619961205649775 ], [ -72.969461554919505, 10.619980471297023 ], [ -72.969480915775833, 10.619974799787823 ], [ -72.96951285758287, 10.619966302749225 ], [ -72.969498163109236, 10.620018865287291 ], [ -72.969498035579477, 10.620054259848938 ], [ -72.96945935613293, 10.620054123455562 ], [ -72.969443797447354, 10.620077984944347 ], [ -72.96944072756493, 10.620124848689954 ], [ -72.969453199133213, 10.620152635242157 ], [ -72.969455015316754, 10.620185166767101 ], [ -72.969460693191621, 10.62021962547114 ], [ -72.969440262215358, 10.620253993008944 ], [ -72.969415638872974, 10.620259783348731 ], [ -72.969429935662461, 10.620206022648594 ], [ -72.969393859641315, 10.620154078317624 ], [ -72.969396104149027, 10.620090310495538 ], [ -72.969347969605622, 10.620030351217066 ], [ -72.969314863501083, 10.619713350690111 ], [ -72.969307667443829, 10.61947416719944 ], [ -72.969282397439699, 10.619475597540898 ], [ -72.969285475792461, 10.619292253602243 ], [ -72.969269485565903, 10.619257121277451 ], [ -72.969269600474178, 10.619225233813541 ], [ -72.969264845651324, 10.619202895174922 ], [ -72.969282792344373, 10.619142371695176 ], [ -72.969265062441295, 10.618919094985907 ], [ -72.969260248206098, 10.61891349821847 ], [ -72.969242499744226, 10.618919015416164 ], [ -72.969227174651962, 10.618922947579321 ], [ -72.969194984535832, 10.618910876328144 ], [ -72.969186192636869, 10.618890915176745 ], [ -72.969150833608197, 10.618863686052904 ], [ -72.969140356520214, 10.618840012053344 ], [ -72.969424525001983, 10.618853821564793 ], [ -72.969569948441304, 10.618862106958007 ], [ -72.969571758530364, 10.618863109440182 ], [ -72.969579611054769, 10.618864332987792 ], [ -72.969579998916515, 10.618868519423872 ], [ -72.969587053461495, 10.618867548194387 ], [ -72.969598502078185, 10.61887695569845 ], [ -72.969599491215675, 10.618882140354913 ], [ -72.969601904535423, 10.618883344726077 ], [ -72.96960895836439, 10.618882572352158 ], [ -72.969610154971036, 10.618885965301317 ], [ -72.969613573026606, 10.618887770694137 ], [ -72.969619213441504, 10.618887989437646 ], [ -72.969624638287669, 10.618891994772682 ], [ -72.969634107589044, 10.618891829297214 ], [ -72.969637343821745, 10.618888053354562 ], [ -72.969645604309179, 10.618887883617216 ], [ -72.96964841410724, 10.618890882728397 ], [ -72.969652249456729, 10.61888870428564 ], [ -72.969664334007234, 10.618889742988021 ], [ -72.969673189829678, 10.618891967074802 ], [ -72.969675613920444, 10.618890181373796 ], [ -72.969680846892629, 10.618891395684388 ], [ -72.969684044551016, 10.618898582135287 ], [ -72.96968746978645, 10.618898394447536 ], [ -72.969698011499091, 10.61888029570845 ], [ -72.969702850864522, 10.618878918046398 ], [ -72.969714330551255, 10.618879954614576 ], [ -72.969717566257543, 10.618876578194051 ], [ -72.969721379356443, 10.61888057694204 ], [ -72.969725018000631, 10.618877201941828 ], [ -72.969729834590723, 10.618882400994099 ], [ -72.969734478690356, 10.618879427255205 ], [ -72.969738508069852, 10.618879441458997 ], [ -72.969738898802078, 10.618882831567056 ], [ -72.969743730991837, 10.618883446080321 ], [ -72.969750601754029, 10.61887769074692 ], [ -72.96975684898743, 10.618877115288839 ], [ -72.969760690082353, 10.618873341476876 ], [ -72.969760884109931, 10.618875535028449 ], [ -72.969768345183837, 10.618873568223314 ], [ -72.969778818504835, 10.618874202620709 ], [ -72.969778808454762, 10.618876992932538 ], [ -72.969791681455703, 10.618882619003102 ], [ -72.96981225622045, 10.618875516347346 ], [ -72.969822531919675, 10.618874955087493 ], [ -72.969828369953717, 10.618876370386932 ], [ -72.969834599243086, 10.618880777175114 ], [ -72.969839233292291, 10.618880593746439 ], [ -72.969842230464266, 10.618887380868383 ], [ -72.969869464729769, 10.618877113617131 ], [ -72.969880117727214, 10.618883926818773 ], [ -72.969892423188654, 10.618879187641697 ], [ -72.969936697250645, 10.618881057484543 ], [ -72.97011652276214, 10.618891576293386 ], [ -72.970268154164742, 10.618899046228837 ], [ -72.97036050269719, 10.618932654196135 ], [ -72.970359684625294, 10.618936039141461 ], [ -72.970364315086769, 10.618936852697169 ], [ -72.970365699281629, 10.618944231612335 ], [ -72.970360632161515, 10.618952783662303 ], [ -72.970365472245319, 10.618951206229903 ], [ -72.970365047066679, 10.618957382907171 ], [ -72.970369270480035, 10.61895959065461 ], [ -72.970373918880583, 10.618955421057626 ], [ -72.970373911705764, 10.618957414137887 ], [ -72.970373695430197, 10.618961399587018 ], [ -72.970376105884256, 10.618963401184709 ], [ -72.970370190557674, 10.618983709117256 ], [ -72.970394204902789, 10.618972433470937 ], [ -72.970398631482851, 10.618974043550162 ], [ -72.970404067821377, 10.618974859944455 ], [ -72.970412278813015, 10.618988441085282 ], [ -72.970418324126115, 10.618987863998887 ], [ -72.970424376089255, 10.618985693355226 ], [ -72.970429205607886, 10.618987304853567 ], [ -72.970427770477343, 10.618994075452809 ], [ -72.970435844305982, 10.618989918826184 ], [ -72.970449148961862, 10.61898757396971 ], [ -72.970456377977811, 10.618993977374064 ], [ -72.970464667885935, 10.61898563553415 ], [ -72.970472289994404, 10.618995029529383 ], [ -72.970482356077454, 10.618996859236528 ], [ -72.970489014863787, 10.618993892583143 ], [ -72.970495868398658, 10.618992920625139 ], [ -72.970502925815381, 10.618991152142939 ], [ -72.970508631059928, 10.618984276366216 ], [ -72.970554017953532, 10.619001655592418 ], [ -72.970555854111566, 10.61902892557619 ] ] ] ] } },
{ "type": "Feature", "properties": { "CODIGO": "21", "OBSERV": "seasonal crops", "INSUMO": "Villanueva-orthophoto", "APOYO": null, "ASIGNACION": "Sofia", "Asignado": null, "OAM": "https://map.openaerialmap.org/#/-72.96981811523436,10.62148846942077,15/square/03223100022113220/6892721568ad542f682331a4?_k=odm80e", "area": 6784.769, "url_type": "oam", "download_url": "https://oin-hotosm-temp.s3.us-east-1.amazonaws.com/68926fc868ad542f68232c06/0/68926fc868ad542f68232c07.tif", "poly_id": 1, "image_uid": "img_0000_c4a77f3e", "r_mean": 127.52891224581587, "r_median": 126.0, "r_std": 33.014477501478567, "r_var": 1089.9557246956347, "r_cv": 0.25887837448062095, "g_mean": 112.43459129323202, "g_median": 109.0, "g_std": 31.271097945117766, "g_var": 977.88156669314856, "g_cv": 0.27812702110120202, "b_mean": 92.731403072698441, "b_median": 91.0, "b_std": 29.475411534689556, "b_var": 868.79988513931016, "b_cv": 0.31785792685118525, "r_g_mean": 1.1596304688803238, "r_g_std": 0.21584082361481971, "r_b_mean": 1.4240624291168913, "r_b_std": 0.41879136918750132, "g_b_mean": 1.3132274602633838, "g_b_std": 0.99760408206713957, "r_minus_g_mean": 15.09432095258386, "r_minus_g_std": 23.138330126388176, "g_minus_b_mean": 19.70318822053358, "g_minus_b_std": 20.976314740591548, "h_mean": 0.5204847326248403, "h_std": 0.55953675484515386, "s_mean": 0.31138290320089984, "s_std": 0.12133040921853648, "v_mean": 0.5215164902596694, "v_std": 0.11966054511264949, "lab_l_mean": 48.252590148398589, "lab_a_mean": 2.9045735468230434, "lab_b_mean": 13.255279647169907, "vari_mean": -0.11046056975518159, "vari_std": 0.16289710555497941 }, "geometry": { "type": "MultiPolygon", "coordinates": [ [ [ [ -72.96914035077404, 10.618841606516902 ], [ -72.969150827862052, 10.618865280516461 ], [ -72.96918618689088, 10.61889250964032 ], [ -72.969194978789886, 10.618912470791726 ], [ -72.969227168906187, 10.618924542042919 ], [ -72.969242493998522, 10.618920609879769 ], [ -72.969260242460493, 10.618915092682085 ], [ -72.969265056695718, 10.618920689449524 ], [ -72.969282786598768, 10.619143966158765 ], [ -72.969264839905591, 10.619204489638497 ], [ -72.969269594728445, 10.619226828277128 ], [ -72.96926947982341, 10.619258714837146 ], [ -72.969285470046771, 10.619293848065832 ], [ -72.969282391693895, 10.619477192004467 ], [ -72.96912291848443, 10.619454307682551 ], [ -72.969128060256011, 10.619369026360767 ], [ -72.969127501463433, 10.619300466107342 ], [ -72.96913814737259, 10.619253469096893 ], [ -72.969126983808493, 10.61922074461231 ], [ -72.969068837010269, 10.619255616351694 ], [ -72.969066451901242, 10.619246838278086 ], [ -72.96903833332874, 10.619222823645845 ], [ -72.969012564345888, 10.619217949296422 ], [ -72.968931193536008, 10.619212878801902 ], [ -72.968874796411086, 10.619209491779838 ], [ -72.968824006855996, 10.619215689625642 ], [ -72.968783579779554, 10.619253015550459 ], [ -72.968783381476911, 10.619308020919352 ], [ -72.968786501521294, 10.619336730824479 ], [ -72.968800900055015, 10.619366277764227 ], [ -72.968820185583411, 10.619381492497014 ], [ -72.968819331567275, 10.619394842832179 ], [ -72.968811124267248, 10.619436267737447 ], [ -72.968820667428574, 10.619471377334786 ], [ -72.968669160157617, 10.619474031723502 ], [ -72.968009647258512, 10.619476339959732 ], [ -72.968060497396593, 10.619319631926709 ], [ -72.968081877875534, 10.61929005128758 ], [ -72.968145516146663, 10.619207049168557 ], [ -72.968268369128026, 10.619061118491226 ], [ -72.968287753179141, 10.619048750122699 ], [ -72.968323133610966, 10.61902543772498 ], [ -72.968435093048456, 10.618950259423549 ], [ -72.968470425166359, 10.618940339051349 ], [ -72.968539641796568, 10.618919059596973 ], [ -72.968679507114317, 10.618882243664023 ], [ -72.968784506400283, 10.618860134078353 ], [ -72.968910780061819, 10.618838098601913 ], [ -72.969080487228027, 10.618838697227327 ], [ -72.96914035077404, 10.618841606516902 ] ] ] ] } },
{ "type": "Feature", "properties": { "CODIGO": "112", "OBSERV": "urban not continuous", "INSUMO": "Villanueva-orthophoto", "APOYO": null, "ASIGNACION": "Sofia", "Asignado": null, "OAM": "https://map.openaerialmap.org/#/-72.96981811523436,10.62148846942077,15/square/03223100022113220/6892721568ad542f682331a4?_k=odm80e", "area": 12227.436, "url_type": "oam", "download_url": "https://oin-hotosm-temp.s3.us-east-1.amazonaws.com/68926fc868ad542f68232c06/0/68926fc868ad542f68232c07.tif", "poly_id": 2, "image_uid": "img_0000_c4a77f3e", "r_mean": 99.266002476020631, "r_median": 98.0, "r_std": 32.730919957969547, "r_var": 1071.3131212950091, "r_cv": 0.32972940525006283, "g_mean": 127.32413809099705, "g_median": 128.0, "g_std": 29.872697476389856, "g_var": 892.37805451590896, "g_cv": 0.23461927898573476, "b_mean": 68.139832962176243, "b_median": 62.0, "b_std": 38.685957473308655, "b_var": 1496.6033056266456, "b_cv": 0.56774364995556792, "r_g_mean": 0.77625324309535182, "r_g_std": 0.17368420448548907, "r_b_mean": 1.7142589702910502, "r_b_std": 1.0760254635918467, "g_b_mean": 2.3980525429067758, "g_b_std": 2.3715546028561065, "r_minus_g_mean": -28.058135614976418, "r_minus_g_std": 21.660058587854898, "g_minus_b_mean": 59.18430512882081, "g_minus_b_std": 30.011116839729816, "h_mean": 1.5042958920218426, "h_std": 0.54350787924185984, "s_mean": 0.50396427036870706, "s_std": 0.18978708118359452, "v_mean": 0.50793071175435256, "v_std": 0.12514021365099579, "lab_l_mean": 49.910635291873433, "lab_a_mean": -20.03508683083038, "lab_b_mean": 28.543666895866558, "vari_mean": 0.22481501879181934, "vari_std": 2.8683678479582886 }, "geometry": { "type": "MultiPolygon", "coordinates": [ [ [ [ -72.969282391693895, 10.619477192004467 ], [ -72.969307661698153, 10.619475761663006 ], [ -72.969314857755307, 10.61971494515366 ], [ -72.969347963859846, 10.620031945680614 ], [ -72.969396098403465, 10.620091904959111 ], [ -72.969393853895724, 10.620155672781184 ], [ -72.969429929917013, 10.620207617112174 ], [ -72.969415633127426, 10.620261377812273 ], [ -72.968928602181663, 10.620387713936658 ], [ -72.968645580887355, 10.620217056458175 ], [ -72.968516045925071, 10.620137916435135 ], [ -72.968465901370038, 10.62009899549696 ], [ -72.968281967598315, 10.619954134097394 ], [ -72.968078745615173, 10.619794855061995 ], [ -72.967977007575627, 10.619716769313014 ], [ -72.967972439461775, 10.619709817543194 ], [ -72.967968842399742, 10.619701912873737 ], [ -72.967969221205706, 10.619692395219195 ], [ -72.967985191494861, 10.619554218777038 ], [ -72.968009647258512, 10.619476339959732 ], [ -72.968669160157617, 10.619474031723502 ], [ -72.968820667428574, 10.619471377334786 ], [ -72.968811124267248, 10.619436267737447 ], [ -72.968819331567275, 10.619394842832179 ], [ -72.968820185583411, 10.619381492497014 ], [ -72.968800900055015, 10.619366277764227 ], [ -72.968786501521294, 10.619336730824479 ], [ -72.968783381476911, 10.619308020919352 ], [ -72.968783579779554, 10.619253015550459 ], [ -72.968824006855996, 10.619215689625642 ], [ -72.968874796411086, 10.619209491779838 ], [ -72.968931193536008, 10.619212878801902 ], [ -72.969012564345888, 10.619217949296422 ], [ -72.96903833332874, 10.619222823645845 ], [ -72.969066451901242, 10.619246838278086 ], [ -72.969068837010269, 10.619255616351694 ], [ -72.969126983808493, 10.61922074461231 ], [ -72.96913814737259, 10.619253469096893 ], [ -72.969127501463433, 10.619300466107342 ], [ -72.969128060256011, 10.619369026360767 ], [ -72.96912291848443, 10.619454307682551 ], [ -72.969282391693895, 10.619477192004467 ] ] ] ] } },
{ "type": "Feature", "properties": { "CODIGO": "231", "OBSERV": "clean pasture", "INSUMO": "Villanueva-orthophoto", "APOYO": null, "ASIGNACION": "Sofia", "Asignado": null, "OAM": "https://map.openaerialmap.org/#/-72.96981811523436,10.62148846942077,15/square/03223100022113220/6892721568ad542f682331a4?_k=odm80e", "area": 19385.187, "url_type": "oam", "download_url": "https://oin-hotosm-temp.s3.us-east-1.amazonaws.com/68926fc868ad542f68232c06/0/68926fc868ad542f68232c07.tif", "poly_id": 3, "image_uid": "img_0000_c4a77f3e", "r_mean": 122.33730721282988, "r_median": 120.0, "r_std": 32.866168954860022, "r_var": 1080.1850617694049, "r_cv": 0.26865205474633208, "g_mean": 127.94875213158605, "g_median": 128.0, "g_std": 23.740169508781257, "g_var": 563.59564830566728, "g_cv": 0.18554436142031466, "b_mean": 84.136397647749646, "b_median": 81.0, "b_std": 32.283868503314807, "b_var": 1042.2481655393219, "b_cv": 0.38370870878589708, "r_g_mean": 0.95129510490017155, "r_g_std": 0.16808631582309871, "r_b_mean": 1.553255885843436, "r_b_std": 0.50652920764861231, "g_b_mean": 1.7297709460603923, "g_b_std": 1.0118105994485027, "r_minus_g_mean": -5.6114449187561677, "r_minus_g_std": 21.129860961263862, "g_minus_b_mean": 43.812354483836394, "g_minus_b_std": 24.044568648708587, "h_mean": 1.0708739863982746, "h_std": 0.47724107603670363, "s_mean": 0.39081931899681477, "s_std": 0.14809762118172398, "v_mean": 0.52779047018743741, "v_std": 0.10942182220771778, "lab_l_mean": 52.122211965212955, "lab_a_mean": -9.443440229248802, "lab_b_mean": 23.168478276297943, "vari_mean": 0.036956175169138981, "vari_std": 0.13196742297079939 }, "geometry": { "type": "MultiPolygon", "coordinates": [ [ [ [ -72.972643240017121, 10.619758422448676 ], [ -72.972729304696912, 10.619788966038479 ], [ -72.972746048103772, 10.619794127439349 ], [ -72.972761483046867, 10.619804385869825 ], [ -72.972767893426607, 10.619814611668192 ], [ -72.972768505506679, 10.619823542577642 ], [ -72.972775813342807, 10.619942828377166 ], [ -72.972792259298402, 10.620210106245258 ], [ -72.972790047783946, 10.620287266507695 ], [ -72.972787441158289, 10.620653966411361 ], [ -72.972785775121153, 10.620938399948979 ], [ -72.972783159089886, 10.620948594915557 ], [ -72.972772161238936, 10.620959397663144 ], [ -72.972757971934044, 10.620961261335809 ], [ -72.972517916739406, 10.620962473566674 ], [ -72.971227739361623, 10.620971051885288 ], [ -72.971233579790294, 10.620937275520705 ], [ -72.971260735476918, 10.62091536832911 ], [ -72.971267586749377, 10.620892433317982 ], [ -72.971279262985348, 10.620872385185899 ], [ -72.97129769412858, 10.620856187056333 ], [ -72.971314140264326, 10.620854331395567 ], [ -72.971342193802968, 10.620851560269523 ], [ -72.971352903340247, 10.620831508730719 ], [ -72.971361809342625, 10.620775099482167 ], [ -72.971361977964548, 10.620728224574082 ], [ -72.971345638516851, 10.620700424462719 ], [ -72.971320589221236, 10.620674507249609 ], [ -72.971291620628307, 10.620662925695033 ], [ -72.971277205159566, 10.620638003150264 ], [ -72.971364995315213, 10.62042689565205 ], [ -72.971483739799254, 10.620213028085011 ], [ -72.971626807499092, 10.619958111238496 ], [ -72.971740592494584, 10.619778664786446 ], [ -72.971908883789453, 10.619769690041318 ], [ -72.97218546179424, 10.619765880486307 ], [ -72.97235564269215, 10.619769348951534 ], [ -72.972505520171211, 10.619771788694491 ], [ -72.972643240017121, 10.619758422448676 ] ] ] ] } },
{ "type": "Feature", "properties": { "CODIGO": "313", "OBSERV": "fragmented forest", "INSUMO": "Villanueva-orthophoto", "APOYO": null, "ASIGNACION": "Sofia", "Asignado": null, "OAM": "https://map.openaerialmap.org/#/-72.96981811523436,10.62148846942077,15/square/03223100022113220/6892721568ad542f682331a4?_k=odm80e", "area": 5013.914, "url_type": "oam", "download_url": "https://oin-hotosm-temp.s3.us-east-1.amazonaws.com/68926fc868ad542f68232c06/0/68926fc868ad542f68232c07.tif", "poly_id": 4, "image_uid": "img_0000_c4a77f3e", "r_mean": 83.955536231658513, "r_median": 83.0, "r_std": 32.696275485631567, "r_var": 1069.046430632312, "r_cv": 0.38944752130952665, "g_mean": 110.25193303815756, "g_median": 110.0, "g_std": 33.226428672133913, "g_var": 1103.9955623044027, "g_cv": 0.30136821873802827, "b_mean": 56.357108211229651, "b_median": 53.0, "b_std": 27.970274698475421, "b_var": 782.33626670817432, "b_cv": 0.49630429215142197, "r_g_mean": 0.75176858482240239, "r_g_std": 0.17454210234404144, "r_b_mean": 1.7089232417525748, "r_b_std": 1.2792594799275809, "g_b_mean": 2.530855444803048, "g_b_std": 2.97527638369258, "r_minus_g_mean": -26.296396806499054, "r_minus_g_std": 17.67676296597892, "g_minus_b_mean": 53.894824826927916, "g_minus_b_std": 22.927022774504778, "h_mean": 1.5299910638968131, "h_std": 0.33967701938725309, "s_mean": 0.50979716216440873, "s_std": 0.16368680165124216, "v_mean": 0.43768812699993692, "v_std": 0.13273643898517334, "lab_l_mean": 43.122180254312269, "lab_a_mean": -19.379056372572521, "lab_b_mean": 26.497530172622032, "vari_mean": 0.20184205782975664, "vari_std": 0.14042239027739639 }, "geometry": { "type": "MultiPolygon", "coordinates": [ [ [ [ -72.969167206573786, 10.620532277943035 ], [ -72.969095549230715, 10.620489131392111 ], [ -72.968953709277258, 10.620402853392578 ], [ -72.968928602181663, 10.620387713936658 ], [ -72.969415633127426, 10.620261377812273 ], [ -72.969440256473206, 10.620255586568614 ], [ -72.969460687446329, 10.620221219934733 ], [ -72.969455009571462, 10.620186761230697 ], [ -72.96945319338792, 10.620154229705753 ], [ -72.969440721819581, 10.620126443153547 ], [ -72.969443791702062, 10.620079579407944 ], [ -72.969459350387723, 10.62005571791917 ], [ -72.969498029834469, 10.620055854312566 ], [ -72.969498157364256, 10.620020459750906 ], [ -72.969512851841245, 10.619967896308982 ], [ -72.969480910034022, 10.619976393347542 ], [ -72.969461549177609, 10.619982064856748 ], [ -72.969423905367194, 10.61996280011337 ], [ -72.969403657105204, 10.619946465697238 ], [ -72.969409648650526, 10.619893872474568 ], [ -72.969426136098846, 10.619880537493646 ], [ -72.969432093169843, 10.619837510147601 ], [ -72.969437052528136, 10.619803088953523 ], [ -72.969489352870681, 10.619780314254013 ], [ -72.969522175180728, 10.619795735768177 ], [ -72.969556997267759, 10.619792988659643 ], [ -72.969582177301859, 10.619782554208822 ], [ -72.969600580880936, 10.619774009425186 ], [ -72.969638314283259, 10.619768402681546 ], [ -72.969661635837568, 10.619736916109799 ], [ -72.96969349582406, 10.619751377884908 ], [ -72.969693382103344, 10.61978294627882 ], [ -72.969724097830792, 10.619846193058994 ], [ -72.969733675330303, 10.619872055837522 ], [ -72.969737394822531, 10.619913203745391 ], [ -72.969747918337816, 10.61994480963968 ], [ -72.969767136990995, 10.619978359748526 ], [ -72.969773734258951, 10.620026214815002 ], [ -72.969773658449753, 10.620047260109857 ], [ -72.969816084966396, 10.620080892030673 ], [ -72.969849923170969, 10.620082923972493 ], [ -72.969884776301924, 10.620071567268276 ], [ -72.969913772336895, 10.620075496600263 ], [ -72.969936921622548, 10.620091840308474 ], [ -72.96995330225333, 10.620108161061337 ], [ -72.969968684274448, 10.62013308796557 ], [ -72.969967610779861, 10.62016273941693 ], [ -72.969998527338333, 10.620170501730868 ], [ -72.970014887305155, 10.620192562189652 ], [ -72.97002640510911, 10.620216518239175 ], [ -72.970047575328877, 10.620245291760916 ], [ -72.970043624971439, 10.620268236963229 ], [ -72.970072441885193, 10.620321910121858 ], [ -72.970069420321067, 10.620355381831747 ], [ -72.970039432534008, 10.620358146030092 ], [ -72.970012391436015, 10.620348483816256 ], [ -72.970001750740309, 10.620349403544211 ], [ -72.969986196438015, 10.62037230784474 ], [ -72.969941631369409, 10.62039510988599 ], [ -72.96992312783901, 10.620431396006833 ], [ -72.969898832666416, 10.620464792723732 ], [ -72.969882358983924, 10.620474301557119 ], [ -72.96986001786297, 10.620501964473586 ], [ -72.96983294229895, 10.62050186902626 ], [ -72.969823206262063, 10.620520011279298 ], [ -72.96978651618673, 10.62050457524894 ], [ -72.969768228818239, 10.620480595326031 ], [ -72.969769299804952, 10.620451900197907 ], [ -72.969748045980012, 10.620446085487133 ], [ -72.969714160405942, 10.620457445582534 ], [ -72.969685105751054, 10.620469779035332 ], [ -72.969674354769282, 10.620501309923426 ], [ -72.96965399272375, 10.620516544814972 ], [ -72.969602738223784, 10.620517320424508 ], [ -72.969588181594759, 10.620531618548537 ], [ -72.96960541862731, 10.620578553899055 ], [ -72.969572496276484, 10.620590874606121 ], [ -72.969509672287685, 10.620582043404502 ], [ -72.969487413855092, 10.620586747460974 ], [ -72.969498914388382, 10.620615487821205 ], [ -72.969499784565272, 10.620642276229512 ], [ -72.969482299361047, 10.62066421736176 ], [ -72.96945816269259, 10.620653609012981 ], [ -72.969433044630293, 10.620646824324201 ], [ -72.969408044691846, 10.620607514027173 ], [ -72.969418839606945, 10.62056354651356 ], [ -72.969423805878989, 10.620527212689447 ], [ -72.969397745270058, 10.62051372766223 ], [ -72.969386251641808, 10.620483074666344 ], [ -72.969403885069511, 10.620419999272066 ], [ -72.969403954014524, 10.620400866613474 ], [ -72.969368202172674, 10.620393088091618 ], [ -72.969372916798193, 10.620426586166497 ], [ -72.969363112704315, 10.62046386106438 ], [ -72.969340802568084, 10.620482914378742 ], [ -72.969303089760174, 10.620482781370042 ], [ -72.96927888415965, 10.620491305667125 ], [ -72.969229591543922, 10.620484435698572 ], [ -72.969216947595243, 10.620504480330004 ], [ -72.969167206573786, 10.620532277943035 ] ] ] ] } },
{ "type": "Feature", "properties": { "CODIGO": "313", "OBSERV": "fragmented forest", "INSUMO": "Villanueva-orthophoto", "APOYO": null, "ASIGNACION": "Sofia", "Asignado": null, "OAM": "https://map.openaerialmap.org/#/-72.96981811523436,10.62148846942077,15/square/03223100022113220/6892721568ad542f682331a4?_k=odm80e", "area": 3970.171, "url_type": "oam", "download_url": "https://oin-hotosm-temp.s3.us-east-1.amazonaws.com/68926fc868ad542f68232c06/0/68926fc868ad542f68232c07.tif", "poly_id": 5, "image_uid": "img_0000_c4a77f3e", "r_mean": 85.279684398457178, "r_median": 84.0, "r_std": 34.097649215052911, "r_var": 1162.6496819927984, "r_cv": 0.39983320125501992, "g_mean": 115.44012391034337, "g_median": 116.0, "g_std": 35.979772517545968, "g_var": 1294.544030414356, "g_cv": 0.31167475656462112, "b_mean": 59.156393443159487, "b_median": 56.0, "b_std": 29.761887157241066, "b_var": 885.76992716035068, "b_cv": 0.50310516623765822, "r_g_mean": 0.73305755171589226, "r_g_std": 0.19237334091601524, "r_b_mean": 1.6349300015879682, "r_b_std": 1.1796824202554483, "g_b_mean": 2.527962282713776, "g_b_std": 2.9708692509018917, "r_minus_g_mean": -30.160439511886196, "r_minus_g_std": 20.340113027152483, "g_minus_b_mean": 56.283730467183887, "g_minus_b_std": 26.982937168147288, "h_mean": 1.5423029981297296, "h_std": 0.43549649966838028, "s_mean": 0.50454809737925421, "s_std": 0.18205972656663519, "v_mean": 0.45831707092700158, "v_std": 0.14049867681083447, "lab_l_mean": 44.914388732593935, "lab_a_mean": -20.986643776550821, "lab_b_mean": 27.113302524100245, "vari_mean": 0.22037599780565109, "vari_std": 0.16075322329449249 }, "geometry": { "type": "MultiPolygon", "coordinates": [ [ [ [ -72.971453588125357, 10.61976877927429 ], [ -72.971468725950103, 10.619775004406886 ], [ -72.971470131257362, 10.619787445250893 ], [ -72.971480273102372, 10.619790829908913 ], [ -72.971497171560543, 10.6197975855011 ], [ -72.971505401480087, 10.619794744576106 ], [ -72.971509253669666, 10.61979906252088 ], [ -72.971563899284092, 10.619796384960431 ], [ -72.971575019863394, 10.619796424099452 ], [ -72.971610657277651, 10.6198357716841 ], [ -72.97162226636172, 10.619834378046699 ], [ -72.97163828069813, 10.619818171382708 ], [ -72.971640255357002, 10.619806698763309 ], [ -72.971644163501821, 10.619795711113078 ], [ -72.971649033979546, 10.619785684082808 ], [ -72.971658276222371, 10.619770409914047 ], [ -72.971667476267996, 10.619766616069239 ], [ -72.971679042354296, 10.619777179107899 ], [ -72.971687716057417, 10.619785341143935 ], [ -72.971717697714467, 10.619784012157742 ], [ -72.971723525476378, 10.619776857483139 ], [ -72.971730332876078, 10.619766359102625 ], [ -72.971735165515696, 10.619766854273342 ], [ -72.971740964038759, 10.619767831007612 ], [ -72.971740592494584, 10.619778664786446 ], [ -72.971626807499092, 10.619958111238496 ], [ -72.971483739799254, 10.620213028085011 ], [ -72.971364995315213, 10.62042689565205 ], [ -72.971277205159566, 10.620638003150264 ], [ -72.971291620628307, 10.620662925695033 ], [ -72.971320589221236, 10.620674507249609 ], [ -72.971345638516851, 10.620700424462719 ], [ -72.971361977964548, 10.620728224574082 ], [ -72.971361809342625, 10.620775099482167 ], [ -72.971352903340247, 10.620831508730719 ], [ -72.971342193802968, 10.620851560269523 ], [ -72.971314140264326, 10.620854331395567 ], [ -72.97129769412858, 10.620856187056333 ], [ -72.971279262985348, 10.620872385185899 ], [ -72.971267586749377, 10.620892433317982 ], [ -72.971260735476918, 10.62091536832911 ], [ -72.971233579790294, 10.620937275520705 ], [ -72.971227739361623, 10.620971051885288 ], [ -72.970890859327369, 10.620973291351239 ], [ -72.970900528863666, 10.620958636083556 ], [ -72.970899800441615, 10.620937109785036 ], [ -72.970896645770765, 10.620917965764098 ], [ -72.970904773441333, 10.62089886147948 ], [ -72.970933049185845, 10.620879031815953 ], [ -72.970943544814148, 10.620873488084262 ], [ -72.970961359354021, 10.620849635363456 ], [ -72.970954979198964, 10.620831277225541 ], [ -72.970956656030197, 10.620812947462618 ], [ -72.970951881900604, 10.62079618946529 ], [ -72.970930215821681, 10.620770603216311 ], [ -72.970903698162289, 10.6207497824289 ], [ -72.970898122976379, 10.620731428029194 ], [ -72.970911137565992, 10.620697991498204 ], [ -72.970940170405839, 10.620691715809231 ], [ -72.970964290502479, 10.62070694745386 ], [ -72.970978717991656, 10.620728522900956 ], [ -72.971003701346845, 10.620727813641237 ], [ -72.971006162018526, 10.620715864576306 ], [ -72.970993311867403, 10.62070386068868 ], [ -72.970992557621628, 10.620689508575218 ], [ -72.970985397402146, 10.620663973414096 ], [ -72.970979047888463, 10.620636846623359 ], [ -72.970989632433415, 10.620606590499065 ], [ -72.971018688210009, 10.620593937848072 ], [ -72.971046167560317, 10.620571712735199 ], [ -72.971060732736348, 10.620555022840373 ], [ -72.971048690421213, 10.620542225461625 ], [ -72.97105444918833, 10.620509561517444 ], [ -72.971061816849442, 10.620477699576869 ], [ -72.97107393569641, 10.620468972585746 ], [ -72.971102922617078, 10.620475452594745 ], [ -72.971122327890811, 10.620457185254498 ], [ -72.971142591583259, 10.620424571477169 ], [ -72.971157153878409, 10.620408678808726 ], [ -72.971167726923227, 10.620381611604458 ], [ -72.97118392391782, 10.620359347655207 ], [ -72.971208179714452, 10.620337111174774 ], [ -72.971238064278907, 10.620318084382909 ], [ -72.971245365042705, 10.620304556966564 ], [ -72.971272783209642, 10.620299073703901 ], [ -72.971281682305445, 10.620289538125492 ], [ -72.971278564892955, 10.620260030990085 ], [ -72.971276216077371, 10.62024089071153 ], [ -72.971289157993155, 10.620227384057756 ], [ -72.971300523476302, 10.620204304944814 ], [ -72.971333604820757, 10.620192463673783 ], [ -72.971345758972433, 10.620174170789534 ], [ -72.971335388636845, 10.620144638121198 ], [ -72.971333140186218, 10.620097595615823 ], [ -72.971312266570237, 10.620075998395533 ], [ -72.971301085538997, 10.620048057357337 ], [ -72.971292283955094, 10.6200304879429 ], [ -72.971279448153595, 10.620014498810651 ], [ -72.971296519822289, 10.619973105018033 ], [ -72.971314385897216, 10.619934902086268 ], [ -72.971346719596042, 10.61990711423441 ], [ -72.971384633312567, 10.619896087208074 ], [ -72.971415246285474, 10.619898586695593 ], [ -72.971446607793283, 10.619917032759894 ], [ -72.971464344821683, 10.619914703465373 ], [ -72.971474889148979, 10.619895607665162 ], [ -72.97148143653078, 10.619867729032888 ], [ -72.971455692324966, 10.619855680684198 ], [ -72.971450984123337, 10.619820587252002 ], [ -72.971457556394142, 10.619785534429612 ], [ -72.971453588125357, 10.61976877927429 ] ] ] ] } },
{ "type": "Feature", "properties": { "CODIGO": "112", "OBSERV": "urban not continuous", "INSUMO": "Valledupar-orthophoto", "APOYO": null, "ASIGNACION": "Sofia", "Asignado": null, "OAM": "https://map.openaerialmap.org/#/-73.39794158935547,10.713579948923488,17/square/0322301113021330012/689271e368ad542f68233168?_k=zocnec", "area": 16733.419, "url_type": "oam", "download_url": "https://oin-hotosm-temp.s3.us-east-1.amazonaws.com/68926fd668ad542f68232c2e/0/68926fd668ad542f68232c2f.tif", "poly_id": 6, "image_uid": "img_0001_f4dde9b0", "r_mean": 144.69674260872321, "r_median": 155.0, "r_std": 69.619913116321854, "r_var": 4846.9323023242032, "r_cv": 0.48114361015425328, "g_mean": 137.15331385920521, "g_median": 140.0, "g_std": 64.652229697500843, "g_var": 4179.9108048584094, "g_cv": 0.47138656645124605, "b_mean": 114.39701485914712, "b_median": 109.0, "b_std": 71.740043210746393, "b_var": 5146.6337998797599, "b_cv": 0.62711464367385195, "r_g_mean": 1.0705668949630478, "r_g_std": 0.42417240694889002, "r_b_mean": 1.6432077503023115, "r_b_std": 1.7466579164785729, "g_b_mean": 1.6159081522368348, "g_b_std": 2.0925033396900035, "r_minus_g_mean": 7.5434287495179886, "r_minus_g_std": 24.766098181564054, "g_minus_b_mean": 22.756299000058107, "g_minus_b_std": 27.520956490121041, "h_mean": 0.80010842815058258, "h_std": 0.93142880418361385, "s_mean": 0.31532198999646999, "s_std": 0.22224134624876218, "v_mean": 0.59171436564441471, "v_std": 0.26682753177772428, "lab_l_mean": 56.360699232743229, "lab_a_mean": -0.39358065871790432, "lab_b_mean": 13.567164789257744, "vari_mean": -0.046247076438902662, "vari_std": 0.40835653608788403 }, "geometry": { "type": "MultiPolygon", "coordinates": [ [ [ [ -73.397703954292012, 10.714278162861632 ], [ -73.397713412607445, 10.714292804726405 ], [ -73.397725041384618, 10.714283900422348 ], [ -73.397734703749592, 10.714289023653924 ], [ -73.397801228750637, 10.714245796848305 ], [ -73.397817942133869, 10.714270708561818 ], [ -73.397858624346028, 10.714247835796071 ], [ -73.397839354173797, 10.714212714200983 ], [ -73.397849043055317, 10.714206356737487 ], [ -73.397931034813553, 10.71416826669318 ], [ -73.398006748081272, 10.714343194122158 ], [ -73.398123639871216, 10.714272650735108 ], [ -73.398074178609846, 10.714183247973285 ], [ -73.398039509875716, 10.714112375026671 ], [ -73.398107291868527, 10.714083820035361 ], [ -73.398126576279978, 10.714112564858281 ], [ -73.398147876849762, 10.714104957161652 ], [ -73.398154290162225, 10.714120916729968 ], [ -73.39817495534129, 10.714108842809653 ], [ -73.398169185033851, 10.714093522864708 ], [ -73.398180825163081, 10.714079516413165 ], [ -73.398170557261238, 10.714056532528717 ], [ -73.398315714823497, 10.714011597607774 ], [ -73.398328209196492, 10.714023620867891 ], [ -73.398378180582441, 10.714028513724173 ], [ -73.398413641821975, 10.714033374047919 ], [ -73.398484502994378, 10.714070203585951 ], [ -73.398537717953147, 10.714067130239032 ], [ -73.398595808393992, 10.714046528171632 ], [ -73.398598855942325, 10.714021094551358 ], [ -73.398618939215112, 10.714014590660659 ], [ -73.398677972796818, 10.714005151368372 ], [ -73.39873282424233, 10.714001540962487 ], [ -73.398784457791493, 10.713984113188426 ], [ -73.398840940225455, 10.713961912921695 ], [ -73.398868349908696, 10.713961972614584 ], [ -73.398910306157632, 10.713946118393126 ], [ -73.398955476635194, 10.71393505511268 ], [ -73.398976480063297, 10.713915965958256 ], [ -73.398957517538321, 10.713887541899128 ], [ -73.398916235550317, 10.713890003083909 ], [ -73.398897704344549, 10.713812785860876 ], [ -73.398883026832905, 10.713742593847673 ], [ -73.398980628048363, 10.71364585729869 ], [ -73.399037433583473, 10.713623019473454 ], [ -73.399066144883804, 10.713473194880327 ], [ -73.399105744061174, 10.71344400426297 ], [ -73.399121180523281, 10.71346317275543 ], [ -73.399155979336385, 10.713475686590186 ], [ -73.399177281053824, 10.713467122393157 ], [ -73.399205380749592, 10.713447091334068 ], [ -73.399223816448853, 10.713422257098095 ], [ -73.399233691213212, 10.713332345422232 ], [ -73.399251176837566, 10.713299854979363 ], [ -73.39928312239843, 10.713290356607086 ], [ -73.399312129559561, 10.713297117442711 ], [ -73.399398392550466, 10.713223636687148 ], [ -73.399418786741606, 10.713188282373606 ], [ -73.399433361619742, 10.713159612201785 ], [ -73.39942857113175, 10.713138553127626 ], [ -73.399427659372918, 10.713113675876198 ], [ -73.39946737969133, 10.713087930601132 ], [ -73.399479022560001, 10.713072648561507 ], [ -73.399521611938994, 10.713062216891439 ], [ -73.399537180347721, 10.713022068121031 ], [ -73.39955268612691, 10.71300966467019 ], [ -73.399563378915673, 10.712986726422752 ], [ -73.399578282912344, 10.712970764435576 ], [ -73.399708674429064, 10.713061137617474 ], [ -73.3997757093193, 10.713107368236873 ], [ -73.399798454570401, 10.713123776418906 ], [ -73.399862055894971, 10.713172193553756 ], [ -73.399869298617006, 10.713178991083579 ], [ -73.399874118637328, 10.713186780453407 ], [ -73.399876321093942, 10.713193167457153 ], [ -73.399882054608966, 10.713239049606585 ], [ -73.399898845818285, 10.713379088042526 ], [ -73.3999130488167, 10.713505757974641 ], [ -73.399913436796396, 10.713511742370512 ], [ -73.399913823447662, 10.713518324305115 ], [ -73.399913409228475, 10.713522909378272 ], [ -73.399873560104353, 10.713653037988919 ], [ -73.399842672917643, 10.713747689757964 ], [ -73.399811429972885, 10.713830901578394 ], [ -73.399755633497335, 10.713841042399206 ], [ -73.399716902183229, 10.713856903752337 ], [ -73.399728032338118, 10.713927088021961 ], [ -73.399688505429793, 10.713938163691649 ], [ -73.399688535572238, 10.713924610139902 ], [ -73.399694993291789, 10.713920637562232 ], [ -73.399697436777132, 10.713909481234063 ], [ -73.399695854477301, 10.71389592417508 ], [ -73.399679759343101, 10.713883132873763 ], [ -73.399645880391191, 10.713891828849015 ], [ -73.399626525825056, 10.713894976046497 ], [ -73.39960959964759, 10.713893344576764 ], [ -73.399591845968089, 10.713901279203196 ], [ -73.399575692317072, 10.713914797678731 ], [ -73.399570844352525, 10.713919570176648 ], [ -73.399546615215471, 10.713939449680307 ], [ -73.399540200057942, 10.713924287457141 ], [ -73.399504742352363, 10.713917832619472 ], [ -73.399493441985967, 10.713924185726986 ], [ -73.399477318481473, 10.713924150645925 ], [ -73.399463611865997, 10.713924918147564 ], [ -73.399412801404992, 10.713934374580798 ], [ -73.399399124944395, 10.713921588528626 ], [ -73.399382204087431, 10.7139175659879 ], [ -73.399353151806139, 10.713931056382261 ], [ -73.399352324298235, 10.713940621574197 ], [ -73.399345085188685, 10.713933430801804 ], [ -73.399339470028011, 10.71392066138624 ], [ -73.399313672787585, 10.713920605244214 ], [ -73.399303250460818, 10.713894272653814 ], [ -73.399297662825859, 10.713869545234664 ], [ -73.399287242276216, 10.713842415322965 ], [ -73.399257403295437, 10.713847133424563 ], [ -73.399276538777073, 10.713942848614582 ], [ -73.399133747438114, 10.71398718527526 ], [ -73.399113612348188, 10.713978370870686 ], [ -73.39905873085803, 10.714006156850088 ], [ -73.39903147821623, 10.713935139235229 ], [ -73.398950801260597, 10.713962071707176 ], [ -73.398862056757778, 10.713991377658029 ], [ -73.39875236561106, 10.714014259361401 ], [ -73.398628489094435, 10.714071858830385 ], [ -73.398543659304877, 10.714153394360045 ], [ -73.398511487767479, 10.71411943977472 ], [ -73.398434799172932, 10.714165116117087 ], [ -73.398432739208246, 10.714185043838429 ], [ -73.398382256314051, 10.714228783961181 ], [ -73.398341893765576, 10.714252613922378 ], [ -73.398261192686945, 10.714290309131405 ], [ -73.398174404942324, 10.714345929042944 ], [ -73.397947768006688, 10.714461834309816 ], [ -73.398098498629111, 10.714686043030632 ], [ -73.398033778068594, 10.714767358278189 ], [ -73.398025957452887, 10.714803697232114 ], [ -73.397994916939638, 10.714840941977897 ], [ -73.397955192003494, 10.714868600790993 ], [ -73.397921328191032, 10.714870440696247 ], [ -73.397887483582394, 10.714863669173944 ], [ -73.397719822754638, 10.714563846648524 ], [ -73.397596797253428, 10.714637246674235 ], [ -73.397727010813, 10.714810699331807 ], [ -73.397636926742692, 10.714862166160602 ], [ -73.397692876882985, 10.714934042910649 ], [ -73.39763366594903, 10.715022889522935 ], [ -73.397661669842151, 10.715045912120848 ], [ -73.397706266313634, 10.715002956613356 ], [ -73.397796090998014, 10.715068210447098 ], [ -73.397768917619445, 10.715106420934028 ], [ -73.397790723225611, 10.715124052127637 ], [ -73.397705598571847, 10.715242469783842 ], [ -73.397694484422942, 10.71522964133715 ], [ -73.39765034688017, 10.715229533284024 ], [ -73.397652842037331, 10.715212053639119 ], [ -73.397630423012757, 10.715197320212486 ], [ -73.397618453768175, 10.715184272938529 ], [ -73.397598323881553, 10.715182947148104 ], [ -73.397590841851127, 10.715181397644631 ], [ -73.397592071905564, 10.715154086996183 ], [ -73.397585742223498, 10.715156368429836 ], [ -73.39758134743397, 10.715159165747211 ], [ -73.397576050382554, 10.715161577801403 ], [ -73.397571141982198, 10.715163097555623 ], [ -73.397568964527991, 10.715156583129517 ], [ -73.397561348202728, 10.715157457849346 ], [ -73.397560193580247, 10.715154646614458 ], [ -73.397556464473396, 10.715149149413664 ], [ -73.397551310320623, 10.715145691229832 ], [ -73.397547194842105, 10.715140064818392 ], [ -73.397542443759633, 10.715130481133755 ], [ -73.397530490246837, 10.715110795849112 ], [ -73.397513953688403, 10.715117648210134 ], [ -73.397514865182984, 10.715114714924621 ], [ -73.397506729375365, 10.715064917731121 ], [ -73.3975041526148, 10.715063252371264 ], [ -73.397494477413829, 10.715061824638807 ], [ -73.397473445272936, 10.715060114481492 ], [ -73.397460801694805, 10.715058423534822 ], [ -73.397447922107787, 10.71504779878512 ], [ -73.397441606786799, 10.715044464624773 ], [ -73.397441554768491, 10.715013705146912 ], [ -73.397434448862867, 10.715016878935415 ], [ -73.397429155230355, 10.715017759625619 ], [ -73.397430468255635, 10.715008572469142 ], [ -73.39742066758825, 10.71500561309162 ], [ -73.397407904868999, 10.714999965996896 ], [ -73.397405845707695, 10.714997791008329 ], [ -73.397400974919108, 10.714984506101404 ], [ -73.397384245387386, 10.71496519187364 ], [ -73.397361328283921, 10.714943055423792 ], [ -73.397399974041591, 10.714920176473113 ], [ -73.397395624556296, 10.714904722209805 ], [ -73.397411881790958, 10.714906293582558 ], [ -73.397427694309897, 10.714879401672938 ], [ -73.397423733535504, 10.714863437500624 ], [ -73.397341005119202, 10.714864511675378 ], [ -73.397324120038306, 10.714855919400517 ], [ -73.397305259889862, 10.71486276487096 ], [ -73.397281772713697, 10.714862196513101 ], [ -73.397275600075986, 10.714853502869611 ], [ -73.397272487370685, 10.714859749013897 ], [ -73.397261255053039, 10.714861380613369 ], [ -73.397247166945832, 10.714869642211552 ], [ -73.397243184349861, 10.714862229790796 ], [ -73.397225999892925, 10.71487022879735 ], [ -73.397221369675194, 10.714863835573782 ], [ -73.397212055605266, 10.714872619254701 ], [ -73.397200434348633, 10.714875271518105 ], [ -73.397200152120803, 10.71488458838726 ], [ -73.397181034541191, 10.714891688214705 ], [ -73.397161004890478, 10.714901978058824 ], [ -73.397145769343624, 10.714904620620564 ], [ -73.397110758211767, 10.714919212409399 ], [ -73.397096453026521, 10.714910881586665 ], [ -73.397084182661558, 10.714914807966283 ], [ -73.39707936159212, 10.714933303137412 ], [ -73.397067607397602, 10.714937359010884 ], [ -73.397070553311607, 10.714946044707967 ], [ -73.397071061446198, 10.714949364386284 ], [ -73.397068564204574, 10.71496735477807 ], [ -73.39706842471611, 10.714971693653467 ], [ -73.397066999098669, 10.714973987593716 ], [ -73.397050967195824, 10.714985307675455 ], [ -73.397050273964879, 10.71500470591206 ], [ -73.397060579282922, 10.715012133950435 ], [ -73.397054364176043, 10.715020415443762 ], [ -73.397059755111854, 10.715032042658766 ], [ -73.397073410337157, 10.71504203180042 ], [ -73.397073536373242, 10.715043308517762 ], [ -73.397076622121602, 10.71504791026698 ], [ -73.397076994756247, 10.715053782533619 ], [ -73.397054663893883, 10.715055259713427 ], [ -73.396974969777375, 10.715029920232462 ], [ -73.396883929689011, 10.715000214056875 ], [ -73.396875837574527, 10.714997613664927 ], [ -73.396874764255159, 10.714992372664781 ], [ -73.397002911621286, 10.714914917053246 ], [ -73.396995681249436, 10.714903420515576 ], [ -73.396884741733501, 10.714763495488931 ], [ -73.396806840864343, 10.714823817104607 ], [ -73.39677090235007, 10.714776017559533 ], [ -73.396840366486003, 10.714716373599947 ], [ -73.396824315091592, 10.714684447372621 ], [ -73.396919635237367, 10.714598549978605 ], [ -73.396896060905547, 10.714553519271869 ], [ -73.396911277797244, 10.71454121296521 ], [ -73.396931949457368, 10.714526269863651 ], [ -73.396953900919868, 10.71451579348714 ], [ -73.396971660188399, 10.714504989746921 ], [ -73.396992291966995, 10.714507904991864 ], [ -73.39701453334213, 10.714512099288653 ], [ -73.397028745252285, 10.714501606004809 ], [ -73.397031677375807, 10.714488217901296 ], [ -73.397034929320625, 10.714476106938305 ], [ -73.39705687721596, 10.714467225194989 ], [ -73.397063879632171, 10.714453490708831 ], [ -73.397086764179761, 10.714486498560966 ], [ -73.397144075258694, 10.714453936112083 ], [ -73.397165893951751, 10.71443086224736 ], [ -73.397185287720404, 10.714410175963801 ], [ -73.397211929499719, 10.714393491220365 ], [ -73.397244172983889, 10.714395156260098 ], [ -73.397271547106882, 10.714411161601831 ], [ -73.397314194051276, 10.714447131581499 ], [ -73.397341619782296, 10.71444001643075 ], [ -73.397372313104128, 10.714413772623958 ], [ -73.397470060576836, 10.714323893721765 ], [ -73.397540746500113, 10.714439653686835 ], [ -73.397610979286156, 10.714396754127145 ], [ -73.397598155353791, 10.714363240328284 ], [ -73.397703954292012, 10.714278162861632 ] ] ] ] } },
{ "type": "Feature", "properties": { "CODIGO": "233", "OBSERV": "weedy pasture", "INSUMO": "Valledupar-orthophoto", "APOYO": null, "ASIGNACION": "Sofia", "Asignado": null, "OAM": "https://map.openaerialmap.org/#/-73.39794158935547,10.713579948923488,17/square/0322301113021330012/689271e368ad542f68233168?_k=zocnec", "area": 7280.707, "url_type": "oam", "download_url": "https://oin-hotosm-temp.s3.us-east-1.amazonaws.com/68926fd668ad542f68232c2e/0/68926fd668ad542f68232c2f.tif", "poly_id": 7, "image_uid": "img_0001_f4dde9b0", "r_mean": 110.87020032007064, "r_median": 113.0, "r_std": 44.55527783392408, "r_var": 1985.1727828581666, "r_cv": 0.40186883134780732, "g_mean": 115.47020734356423, "g_median": 118.0, "g_std": 44.332121915081949, "g_var": 1965.337033493689, "g_cv": 0.3839269274296736, "b_mean": 60.014178426837773, "b_median": 57.0, "b_std": 35.855321156131424, "b_var": 1285.6040552093255, "b_cv": 0.59744750483991071, "r_g_mean": 0.95765273294814424, "r_g_std": 0.12405206350797993, "r_b_mean": 2.6153962138824909, "r_b_std": 3.4443775166872475, "g_b_mean": 2.8112123003300993, "g_b_std": 3.9349738053348258, "r_minus_g_mean": -4.6000070234935864, "r_minus_g_std": 8.5004369238447879, "g_minus_b_mean": 55.456028916726453, "g_minus_b_std": 22.082546814035915, "h_mean": 1.1267219932121333, "h_std": 0.20900720277223997, "s_mean": 0.51989722009703765, "s_std": 0.17296336884019284, "v_mean": 0.45872429157886074, "v_std": 0.17457811387278804, "lab_l_mean": 46.483745043170948, "lab_a_mean": -10.340965364936986, "lab_b_mean": 29.278105777311222, "vari_mean": 0.03135381977565236, "vari_std": 0.085747097019455487 }, "geometry": { "type": "MultiPolygon", "coordinates": [ [ [ [ -73.399522724373753, 10.714477445456826 ], [ -73.399481369463501, 10.714486763365111 ], [ -73.399447550748548, 10.714468352212865 ], [ -73.399400799688195, 10.714465062084294 ], [ -73.399368540205728, 10.714470572250177 ], [ -73.399338694064753, 10.714478480543024 ], [ -73.399315292380692, 10.714488793928972 ], [ -73.399280607130024, 10.714497488104755 ], [ -73.399273213648016, 10.714559659722134 ], [ -73.399271508939918, 10.714601114183329 ], [ -73.39924728236268, 10.714619399014733 ], [ -73.399212633496802, 10.714612148575586 ], [ -73.399194133877373, 10.714592973417313 ], [ -73.399155413088664, 10.714604050767454 ], [ -73.399125519014774, 10.714633484892209 ], [ -73.399101304850817, 10.714646188465991 ], [ -73.399069048893395, 10.714650104861716 ], [ -73.399036755661669, 10.714670764086433 ], [ -73.399029427799078, 10.714703435729337 ], [ -73.399027726604004, 10.714743296449194 ], [ -73.398997844930093, 10.71476714931447 ], [ -73.398955934724057, 10.714762274104448 ], [ -73.398935028869374, 10.714737513323113 ], [ -73.398897870791075, 10.714770918227918 ], [ -73.398888959728794, 10.714790033707871 ], [ -73.398898499484389, 10.7148506466347 ], [ -73.398855794558784, 10.714840189311639 ], [ -73.398826804309124, 10.714825775231542 ], [ -73.398808284309496, 10.714816167902116 ], [ -73.398779269206372, 10.71481291540408 ], [ -73.39875986749513, 10.714836791072305 ], [ -73.398752540457863, 10.714868666287554 ], [ -73.39874276902718, 10.714912495142572 ], [ -73.398695192156154, 10.714917972772112 ], [ -73.398641136810653, 10.714936724118701 ], [ -73.398600852332734, 10.714925473805348 ], [ -73.39857029318307, 10.714891922301916 ], [ -73.398242503440898, 10.71438414024902 ], [ -73.398720372902957, 10.714109323520557 ], [ -73.398773579852119, 10.714109439414708 ], [ -73.398797739805133, 10.714120654581253 ], [ -73.398833186861182, 10.714131893424469 ], [ -73.398844430437578, 10.714151052799085 ], [ -73.398883081082801, 10.714171865605678 ], [ -73.398918513032257, 10.714189483003983 ], [ -73.398960416972656, 10.714197547499516 ], [ -73.398978205270041, 10.714173667397379 ], [ -73.399029797154427, 10.714175374381053 ], [ -73.399036239826771, 10.714178577707184 ], [ -73.399066816710729, 10.714204156861118 ], [ -73.399148993506373, 10.714228254599576 ], [ -73.399181240545403, 10.7142283247968 ], [ -73.39922633476219, 10.714251543563091 ], [ -73.39928186814825, 10.714293122608289 ], [ -73.399371369257139, 10.714286142375785 ], [ -73.399411727278022, 10.714263906012375 ], [ -73.399481852503584, 10.714269639875255 ], [ -73.399544769622096, 10.714253831176206 ], [ -73.399573855623188, 10.714225192572696 ], [ -73.399577132800317, 10.714201280863803 ], [ -73.39959169530394, 10.714178191934748 ], [ -73.399617511216022, 10.714170274848076 ], [ -73.3996724913641, 10.71419429701383 ], [ -73.399643548635353, 10.714269900356124 ], [ -73.399609863091101, 10.714354773802938 ], [ -73.399606822809403, 10.714360948715703 ], [ -73.39960277784391, 10.714365524985295 ], [ -73.399590028972639, 10.714383642264023 ], [ -73.399522724373753, 10.714477445456826 ] ] ] ] } },
{ "type": "Feature", "properties": { "CODIGO": "231", "OBSERV": "clean pasture", "INSUMO": "Valledupar-orthophoto", "APOYO": null, "ASIGNACION": "Sofia", "Asignado": null, "OAM": "https://map.openaerialmap.org/#/-73.39794158935547,10.713579948923488,17/square/0322301113021330012/689271e368ad542f68233168?_k=zocnec", "area": 4234.956, "url_type": "oam", "download_url": "https://oin-hotosm-temp.s3.us-east-1.amazonaws.com/68926fd668ad542f68232c2e/0/68926fd668ad542f68232c2f.tif", "poly_id": 8, "image_uid": "img_0001_f4dde9b0", "r_mean": 112.75173848805713, "r_median": 114.0, "r_std": 26.170189437754939, "r_var": 684.87881520798021, "r_cv": 0.2321045315015425, "g_mean": 125.20520397274892, "g_median": 126.0, "g_std": 22.533734066539932, "g_var": 507.76917098154217, "g_cv": 0.17997442080318346, "b_mean": 46.801636706886647, "b_median": 45.0, "b_std": 22.337732589663553, "b_var": 498.97429724731711, "b_cv": 0.47728528661427472, "r_g_mean": 0.89623375693568708, "r_g_std": 0.12724419033436579, "r_b_mean": 2.9270936384501276, "r_b_std": 2.4835728454186308, "g_b_mean": 3.4422083573451165, "g_b_std": 3.4877178479383932, "r_minus_g_mean": -12.453465484691783, "r_minus_g_std": 14.357512790725558, "g_minus_b_mean": 78.403567265862264, "g_minus_b_std": 19.700694237528364, "h_mean": 1.1997760477884811, "h_std": 0.21449903971428516, "s_mean": 0.64078672337480502, "s_std": 0.13456879401721336, "v_mean": 0.49927494918183973, "v_std": 0.090595958630763543, "lab_l_mean": 49.946938692473637, "lab_a_mean": -16.127965581895197, "lab_b_mean": 39.494933830960804, "vari_mean": 0.070077656048933595, "vari_std": 0.10893425079032866 }, "geometry": { "type": "MultiPolygon", "coordinates": [ [ [ [ -73.397705598571847, 10.715242469783842 ], [ -73.397791487032393, 10.715122989790604 ], [ -73.397803225263829, 10.71510109078276 ], [ -73.397811744849747, 10.715076791876019 ], [ -73.397836352403047, 10.715068075888301 ], [ -73.397869397744117, 10.715071735927863 ], [ -73.397884723970833, 10.715067782734518 ], [ -73.397890034630578, 10.715035903147799 ], [ -73.397891291081351, 10.715014778598325 ], [ -73.397899393321282, 10.714996857373837 ], [ -73.397912747544765, 10.714973366332634 ], [ -73.397937406643877, 10.71494152984727 ], [ -73.397946295547058, 10.714932380001962 ], [ -73.397953166197411, 10.714924023983263 ], [ -73.39795156797409, 10.714917641902003 ], [ -73.397970933306937, 10.714910110456549 ], [ -73.397987467081464, 10.71490695721546 ], [ -73.398012876397502, 10.714900235368255 ], [ -73.398035475509374, 10.714888724348057 ], [ -73.398048794164424, 10.714881179712014 ], [ -73.398057690145819, 10.714868442822446 ], [ -73.398059718278688, 10.71485542699029 ], [ -73.398049105141681, 10.714842966670735 ], [ -73.398049160601346, 10.714818091533388 ], [ -73.398070443244649, 10.714818137940609 ], [ -73.398091777991723, 10.714795222961023 ], [ -73.398104409428541, 10.714770375243885 ], [ -73.39812573685721, 10.714750330433006 ], [ -73.398146118507768, 10.714720716568415 ], [ -73.398162614607713, 10.714680330350221 ], [ -73.398215090951851, 10.714646561172767 ], [ -73.398235298915182, 10.714622686393559 ], [ -73.398281742814589, 10.714582924119471 ], [ -73.398333104007719, 10.714579477941843 ], [ -73.398431455706714, 10.714761072780652 ], [ -73.398537527033994, 10.714915577187663 ], [ -73.398542527247159, 10.714923719527976 ], [ -73.398531209058234, 10.714938046707497 ], [ -73.398512645517584, 10.714947573247045 ], [ -73.398502913130216, 10.714973861941193 ], [ -73.398504470510488, 10.714998580587851 ], [ -73.39846405548316, 10.715046329276028 ], [ -73.398464801306659, 10.71507343812762 ], [ -73.398430941735427, 10.715073364336655 ], [ -73.398431698214026, 10.715095690168145 ], [ -73.398414743554994, 10.715106814856416 ], [ -73.3984002324393, 10.715106783230022 ], [ -73.398380042222016, 10.715122684811551 ], [ -73.39835822092509, 10.715147352502155 ], [ -73.398347699146299, 10.71516566712825 ], [ -73.398324238740642, 10.71520229111098 ], [ -73.398304881392804, 10.715206234634808 ], [ -73.398282275182737, 10.715221333618308 ], [ -73.398276581856365, 10.715243645389423 ], [ -73.398281371223774, 10.715265181783202 ], [ -73.398273276994658, 10.715279515075464 ], [ -73.39826518545398, 10.71529305195282 ], [ -73.398260303682648, 10.715312972615061 ], [ -73.398259465471071, 10.715327321724633 ], [ -73.398241720561487, 10.715331269663059 ], [ -73.398224781012772, 10.715336016680707 ], [ -73.398207840551507, 10.715340762791413 ], [ -73.398191663657599, 10.715364646353386 ], [ -73.398194860120029, 10.715377409609971 ], [ -73.398185142770203, 10.715396523307543 ], [ -73.39817301680732, 10.715416038551508 ], [ -73.398158103263242, 10.715412412651458 ], [ -73.398086778358021, 10.715388306662543 ], [ -73.397819614471942, 10.71530333596416 ], [ -73.397703945586727, 10.71526514562731 ], [ -73.39771841950531, 10.715257268145024 ], [ -73.397705598571847, 10.715242469783842 ] ] ] ] } },
{ "type": "Feature", "properties": { "CODIGO": "22", "OBSERV": "permanent crops", "INSUMO": "Valledupar-orthophoto", "APOYO": null, "ASIGNACION": "Sofia", "Asignado": null, "OAM": "https://map.openaerialmap.org/#/-73.39794158935547,10.713579948923488,17/square/0322301113021330012/689271e368ad542f68233168?_k=zocnec", "area": 443.526, "url_type": "oam", "download_url": "https://oin-hotosm-temp.s3.us-east-1.amazonaws.com/68926fd668ad542f68232c2e/0/68926fd668ad542f68232c2f.tif", "poly_id": 9, "image_uid": "img_0001_f4dde9b0", "r_mean": 138.12568819017918, "r_median": 143.0, "r_std": 51.704012023464507, "r_var": 2673.3048593225626, "r_cv": 0.37432582382703161, "g_mean": 131.38961111287909, "g_median": 137.0, "g_std": 48.450532883886609, "g_var": 2347.4541367325778, "g_cv": 0.36875467149576929, "b_mean": 80.591565095630585, "b_median": 79.0, "b_std": 44.002564200122137, "b_var": 1936.2256561858701, "b_cv": 0.54599466020927068, "r_g_mean": 1.0480407987987883, "r_g_std": 0.093506954469546127, "r_b_mean": 2.2446278727495605, "r_b_std": 2.8303427722830885, "g_b_mean": 2.1674211810394186, "g_b_std": 2.8396721195506345, "r_minus_g_mean": 6.7360770773000667, "r_minus_g_std": 8.7259582308097521, "g_minus_b_mean": 50.79804601724851, "g_minus_b_std": 19.341776837280573, "h_mean": 0.92908843255763074, "h_std": 0.19876378769802042, "s_mean": 0.4566486656160344, "s_std": 0.15652920729202413, "v_mean": 0.54559074688017328, "v_std": 0.20047413902767505, "lab_l_mean": 53.721671989927408, "lab_a_mean": -5.0467170896701976, "lab_b_mean": 27.960951260357092, "vari_mean": -0.031561442054092823, "vari_std": 0.061179127297788738 }, "geometry": { "type": "MultiPolygon", "coordinates": [ [ [ [ -73.397097088640479, 10.713652936551425 ], [ -73.397129959432732, 10.713663055329882 ], [ -73.397162828403225, 10.71367317229301 ], [ -73.39719178962801, 10.713700502748306 ], [ -73.397207672154167, 10.713736415211297 ], [ -73.397195049238007, 10.713757435391768 ], [ -73.397187275540077, 10.713772725783947 ], [ -73.397198368797191, 10.713787100936928 ], [ -73.397198813907551, 10.713804323030965 ], [ -73.39718621661217, 10.71381386342256 ], [ -73.397185692641528, 10.713831561614752 ], [ -73.397147897703348, 10.713861137398904 ], [ -73.397134327965574, 10.713873067638197 ], [ -73.397106244125936, 10.713885921710753 ], [ -73.397075643589048, 10.713922619505119 ], [ -73.397071606335132, 10.713909397885743 ], [ -73.397061012496707, 10.713888326113381 ], [ -73.397055274289457, 10.71385865528643 ], [ -73.397044683810279, 10.713835670665654 ], [ -73.397010856427983, 10.713821245864059 ], [ -73.396999236906453, 10.713826004436612 ], [ -73.396974075570199, 10.713829776104568 ], [ -73.396952822909299, 10.713816335185081 ], [ -73.396944338767327, 10.7138075560326 ], [ -73.396988193258409, 10.71376403219397 ], [ -73.397019976801843, 10.7137305262883 ], [ -73.397025959049017, 10.713725403750665 ], [ -73.397064710553309, 10.713685804754816 ], [ -73.397097088640479, 10.713652936551425 ] ] ] ] } }
]
}
